[{"OBJECT_NAME":"STARLINK-5984","OBJECT_ID":"2023-058N","EPOCH":"2026-03-09T22:10:52.604544","MEAN_MOTION":15.05648411,"ECCENTRICITY":0.00018782,"INCLINATION":97.604,"RA_OF_ASC_NODE":71.4743,"ARG_OF_PERICENTER":71.1743,"MEAN_ANOMALY":288.9687,"EPHEMERIS_TYPE":0,"CLASSIFICATION_TYPE":"U","NORAD_CAT_ID":56329,"ELEMENT_SET_NO":999,"REV_AT_EPOCH":15823,"BSTAR":0.00013117499,"MEAN_MOTION_DOT":1.832e-5,"MEAN_MOTION_DDOT":0},{"OBJECT_NAME":"MUSAT-2","OBJECT_ID":"2024-043B","EPOCH":"2026-03-09T22:04:01.255008","MEAN_MOTION":15.07177436,"ECCENTRICITY":0.0006495,"INCLINATION":97.8438,"RA_OF_ASC_NODE":205.4399,"ARG_OF_PERICENTER":314.3478,"MEAN_ANOMALY":45.7216,"EPHEMERIS_TYPE":0,"CLASSIFICATION_TYPE":"U","NORAD_CAT_ID":59099,"ELEMENT_SET_NO":999,"REV_AT_EPOCH":11013,"BSTAR":0.00067214198,"MEAN_MOTION_DOT":0.00010059,"MEAN_MOTION_DDOT":0}]
